H1 CPF  1  DLR 2022 02 27 10  5582 technosat            
H2  1704205 6203    42829 2022 02 27 00 00 00 2022 03 06 00 00 00    60 1 1  0 0 0
H9
10 0 59640  64800.000000  0      -1510579.331      -1927874.070      -6533073.547
10 0 59640  64860.000000  0      -1890964.164      -2122516.767      -6370953.352
10 0 59640  64920.000000  0      -2265080.456      -2304970.661      -6181960.827
10 0 59640  64980.000000  0      -2631245.946      -2474527.828      -5966876.623
10 0 59640  65040.000000  0      -2987803.376      -2630547.656      -5726591.720
10 0 59640  65100.000000  0      -3333128.060      -2772459.412      -5462104.193
10 0 59640  65160.000000  0      -3665635.445      -2899764.499      -5174515.438
10 0 59640  65220.000000  0      -3983788.532      -3012038.351      -4865025.899
10 0 59640  65280.000000  0      -4286105.137      -3108931.948      -4534930.386
10 0 59640  65340.000000  0      -4571165.028      -3190173.009      -4185612.979
10 0 59640  65400.000000  0      -4837616.877      -3255566.802      -3818541.478
10 0 59640  65460.000000  0      -5084184.981      -3304996.596      -3435261.446
10 0 59640  65520.000000  0      -5309675.699      -3338423.722      -3037389.827
10 0 59640  65580.000000  0      -5512983.592      -3355887.242      -2626608.195
10 0 59640  65640.000000  0      -5693097.165      -3357503.215      -2204655.607
10 0 59640  65700.000000  0      -5849104.170      -3343463.565      -1773321.205
10 0 59640  65760.000000  0      -5980196.562      -3314034.602      -1334436.525
10 0 59640  65820.000000  0      -6085674.943      -3269555.118       -889867.489
10 0 59640  65880.000000  0      -6164952.456      -3210434.099       -441506.247
10 0 59640  65940.000000  0      -6217558.204      -3137148.098          8737.131
10 0 59640  66000.000000  0      -6243140.119      -3050238.266        458943.133
10 0 59640  66060.000000  0      -6241467.210      -2950307.033        907191.391
10 0 59640  66120.000000  0      -6212431.172      -2838014.475       1351569.291
10 0 59640  66180.000000  0      -6156047.339      -2714074.362       1790180.539
10 0 59640  66240.000000  0      -6072454.986      -2579249.926       2221153.591
10 0 59640  66300.000000  0      -5961917.076      -2434349.452       2642649.881
10 0 59640  66360.000000  0      -5824819.500      -2280221.685       3052871.972
10 0 59640  66420.000000  0      -5661669.601      -2117751.022       3450071.603
10 0 59640  66480.000000  0      -5473093.986      -1947852.515       3832557.404
10 0 59640  66540.000000  0      -5259835.768      -1771466.759       4198702.226
10 0 59640  66600.000000  0      -5022751.297      -1589554.737       4546950.096
10 0 59640  66660.000000  0      -4762806.403      -1403092.644       4875822.819
10 0 59640  66720.000000  0      -4481072.144      -1213066.707       5183926.218
10 0 59640  66780.000000  0      -4178720.103      -1020468.029       5469955.996
10 0 59640  66840.000000  0      -3857017.188       -826287.431       5732703.230
10 0 59640  66900.000000  0      -3517319.961       -631510.341       5971059.347
10 0 59640  66960.000000  0      -3161068.602       -437111.798       6184020.648
10 0 59640  67020.000000  0      -2789780.448       -244051.579       6370692.318
10 0 59640  67080.000000  0      -2405043.246        -53269.517       6530291.895
10 0 59640  67140.000000  0      -2008508.154        134318.987       6662152.289
10 0 59640  67200.000000  0      -1601882.495        317827.285       6765724.327
10 0 59640  67260.000000  0      -1186922.285        496401.639       6840578.815
10 0 59640  67320.000000  0       -765424.580        669225.149       6886408.098
10 0 59640  67380.000000  0       -339219.632        835521.434       6903027.137
10 0 59640  67440.000000  0         89837.060        994558.082       6890374.086
10 0 59640  67500.000000  0        519872.820       1145649.841       6848510.434
10 0 59640  67560.000000  0        949005.988       1288161.563       6777620.626
10 0 59640  67620.000000  0       1375354.130       1421510.854       6678011.167
10 0 59640  67680.000000  0       1797042.260       1545170.398       6550109.274
10 0 59640  67740.000000  0       2212211.043       1658670.005       6394461.057
10 0 59640  67800.000000  0       2619024.961       1761598.362       6211729.298
10 0 59640  67860.000000  0       3015680.501       1853604.484       6002690.740
10 0 59640  67920.000000  0       3400414.209       1934398.841       5768232.823
10 0 59640  67980.000000  0       3771510.534       2003754.146       5509349.998
10 0 59640  68040.000000  0       4127309.491       2061505.869       5227139.635
10 0 59640  68100.000000  0       4466214.151       2107552.438       4922797.557
10 0 59640  68160.000000  0       4786697.942       2141855.142       4597613.150
10 0 59640  68220.000000  0       5087311.748       2164437.705       4252964.056
10 0 59640  68280.000000  0       5366690.798       2175385.492       3890310.354
10 0 59640  68340.000000  0       5623560.974       2174844.349       3511188.161
10 0 59640  68400.000000  0       5856744.522       2163019.211       3117203.221
10 0 59640  68460.000000  0       6065165.717       2140172.427       2710024.254
10 0 59640  68520.000000  0       6247856.049       2106621.765       2291375.816
10 0 59640  68580.000000  0       6403958.893       2062738.143       1863030.902
10 0 59640  68640.000000  0       6532733.629       2008943.035       1426803.270
10 0 59640  68700.000000  0       6633559.169       1945705.617        984539.653
10 0 59640  68760.000000  0       6705937.007       1873539.741        538111.836
10 0 59640  68820.000000  0       6749493.705       1793000.702         89408.564
10 0 59640  68880.000000  0       6763982.731       1704681.767       -359672.693
10 0 59640  68940.000000  0       6749285.618       1609210.501       -807233.893
10 0 59640  69000.000000  0       6705412.604       1507244.935      -1251384.494
10 0 59640  69060.000000  0       6632502.759       1399469.590      -1690249.502
10 0 59640  69120.000000  0       6530823.502       1286591.405      -2121977.537
10 0 59640  69180.000000  0       6400769.389       1169335.571      -2544748.772
10 0 59640  69240.000000  0       6242860.319       1048441.328      -2956782.609
10 0 59640  69300.000000  0       6057739.211        924657.737      -3356345.164
10 0 59640  69360.000000  0       5846169.103        798739.433      -3741756.529
10 0 59640  69420.000000  0       5609029.708        671442.394      -4111397.768
10 0 59640  69480.000000  0       5347313.431        543519.737      -4463717.559
10 0 59640  69540.000000  0       5062120.935        415717.588      -4797238.482
10 0 59640  69600.000000  0       4754656.288        288771.048      -5110562.955
10 0 59640  69660.000000  0       4426221.680        163400.264      -5402378.837
10 0 59640  69720.000000  0       4078211.759         40306.650      -5671464.642
10 0 59640  69780.000000  0       3712107.608        -79830.775      -5916694.406
10 0 59640  69840.000000  0       3329470.332       -196358.892      -6137042.173
10 0 59640  69900.000000  0       2931934.278       -308653.813      -6331585.967
10 0 59640  69960.000000  0       2521200.079       -416124.017      -6499511.304
10 0 59640  70020.000000  0       2099027.474       -518213.286      -6640114.318
10 0 59640  70080.000000  0       1667227.933       -614403.432      -6752804.528
10 0 59640  70140.000000  0       1227657.019       -704216.841      -6837107.209
10 0 59640  70200.000000  0        782206.508       -787218.731      -6892665.270
10 0 59640  70260.000000  0        332796.416       -863019.150      -6919240.621
10 0 59640  70320.000000  0       -118633.023       -931274.766      -6916715.131
10 0 59640  70380.000000  0       -570129.462       -991690.409      -6885091.232
10 0 59640  70440.000000  0      -1019736.718      -1044020.360      -6824492.099
10 0 59640  70500.000000  0      -1465503.078      -1088069.357      -6735161.304
10 0 59640  70560.000000  0      -1905489.619      -1123693.344      -6617462.046
10 0 59640  70620.000000  0      -2337778.511      -1150799.952      -6471875.845
10 0 59640  70680.000000  0      -2760481.158      -1169348.698      -6299000.839
10 0 59640  70740.000000  0      -3171746.337      -1179350.935      -6099549.776
10 0 59640  70800.000000  0      -3569768.361      -1180869.541      -5874347.532
10 0 59640  70860.000000  0      -3952795.155      -1174018.321      -5624328.094
10 0 59640  70920.000000  0      -4319136.119      -1158961.111      -5350531.034
10 0 59640  70980.000000  0      -4667169.770      -1135910.631      -5054097.563
10 0 59640  71040.000000  0      -4995351.174      -1105127.076      -4736266.139
10 0 59640  71100.000000  0      -5302219.109      -1066916.436      -4398367.638
10 0 59640  71160.000000  0      -5586402.956      -1021628.571      -4041820.088
10 0 59640  71220.000000  0      -5846629.271       -969655.011      -3668122.959
10 0 59640  71280.000000  0      -6081727.950       -911426.519      -3278851.007
10 0 59640  71340.000000  0      -6290637.939       -847410.419      -2875647.741
10 0 59640  71400.000000  0      -6472412.495       -778107.700      -2460218.529
10 0 59640  71460.000000  0      -6626223.904       -704049.932      -2034323.358
10 0 59640  71520.000000  0      -6751367.729       -625796.034      -1599769.339
10 0 59640  71580.000000  0      -6847266.562       -543928.817      -1158402.837
10 0 59640  71640.000000  0      -6913473.021       -459051.331       -712101.302
10 0 59640  71700.000000  0      -6949672.044       -371783.102       -262764.989
10 0 59640  71760.000000  0      -6955682.579       -282756.294        187691.376
10 0 59640  71820.000000  0      -6931458.698       -192611.817        637347.041
10 0 59640  71880.000000  0      -6877090.047       -101995.366       1084283.805
10 0 59640  71940.000000  0      -6792801.549        -11553.440       1526594.584
99
